0 METEOR 3-5
1 21655U 91056A   13282.73283558  .00000417  00000-0  10508-2 0  8039
2 21655 082.5583 173.3741 0012943 199.0389 161.0252 13.17045152 65014
0 METEOR 3-5
1 21655U 91056A   13283.79638204  .00000425  00000-0  10723-2 0  8047
2 21655 082.5581 172.6230 0012997 196.3278 163.7427 13.17045781 65159
0 METEOR 3-5
1 21655U 91056A   13286.15138181 -.00000088  00000-0 -26162-3 0  8063
2 21655 082.5577 170.9600 0013122 190.4336 169.6516 13.17051654 65461
0 METEOR 3-5
1 21655U 91056A   13287.44283001 -.00000356  00000-0 -95780-3 0  8079
2 21655 082.5574 170.0480 0013188 187.2482 172.8452 13.17053675 65632
0 METEOR 3-5
1 21655U 91056A   13288.73426966  .00000065  00000-0  13678-3 0  8083
2 21655 082.5570 169.1360 0013383 184.0623 176.0393 13.17049052 65806
0 METEOR 3-5
1 21655U 91056A   13289.79781456 -.00000142  00000-0 -39974-3 0  8094
2 21655 082.5569 168.3850 0013315 181.2680 178.8411 13.17050888 65941
0 METEOR 3-5
1 21655U 91056A   13291.08925646  .00000192  00000-0  46727-3 0  8109
2 21655 082.5566 167.4729 0013380 178.2015 181.9158 13.17047396 66116
0 METEOR 3-5
1 21655U 91056A   13292.15279937  .00000391  00000-0  98407-3 0  8117
2 21655 082.5565 166.7217 0013437 175.5427 184.5818 13.17045690 66251
0 METEOR 3-5
1 21655U 91056A   13293.44424794  .00000421  00000-0  10624-2 0  8122
2 21655 082.5564 165.8096 0013504 172.3349 187.7982 13.17046107 66428
0 METEOR 3-5
1 21655U 91056A   13294.81166689  .00000182  00000-0  44152-3 0  8139
2 21655 082.5562 164.8437 0013569 169.0909 191.0511 13.17049315 66600
0 METEOR 3-5
1 21655U 91056A   13296.10311769 -.00000179  00000-0 -49797-3 0  8143
2 21655 082.5561 163.9315 0013634 165.9176 194.2329 13.17052797 66776
